2023-104A               
1 57424U 23104A   26065.78279804  .00015492  00000+0  48200-3 0  9993
2 57424  97.2792 135.5625 0009333 122.1915 238.0234 15.33350758146346
STARLINK-35741          
1 66272U 25247H   26068.65572484  .00033758  00000+0  11470-2 0  9996
2 66272  53.1606 191.2364 0001093  82.5392 277.5733 15.30190727 21084
